NORAD_CAT_ID,OBJECT_NAME,OBJECT_TYPE,EPOCH,MEAN_MOTION,ECCENTRICITY,INCLINATION,RA_OF_ASC_NODE,ARG_OF_PERICENTER,MEAN_ANOMALY,BSTAR,MEAN_MOTION_DOT,MEAN_MOTION_DDOT,TLE_LINE0,TLE_LINE1,TLE_LINE2,SEMIMAJOR_AXIS,PERIOD,APOGEE,PERIGEE,DECAYED
52371.0,STARLINK-3798,PAYLOAD,2023-10-21 07:22:31,15.08839052,0.0001204,53.2175,136.4271,115.199,244.9127,5.1915e-05,5.38e-06,0.0,0 STARLINK-3798,1 52371U 22045AS  23294.30730475  .00000538  00000-0  51915-4 0  9991,2 52371  53.2175 136.4271 0001204 115.1990 244.9127 15.08839052 84518,6917.883,95.438,540.581,538.915,0.0
52371.0,STARLINK-3798,PAYLOAD,2023-10-21 20:05:35,15.08850655,0.0001409,53.2164,134.0482,94.796,265.3193,0.00018031,2.584e-05,0.0,0 STARLINK-3798,1 52371U 22045AS  23294.83721834  .00002584  00000-0  18031-3 0  9992,2 52371  53.2164 134.0482 0001409  94.7960 265.3193 15.08850655 84590,6917.848,95.437,540.688,538.738,0.0
52371.0,STARLINK-3798,PAYLOAD,2023-10-21 23:16:22,15.08847072,0.0001314,53.2158,133.4557,92.1445,267.9698,0.00021154,3.081e-05,0.0,0 STARLINK-3798,1 52371U 22045AS  23294.96970105  .00003081  00000-0  21154-3 0  9996,2 52371  53.2158 133.4557 0001314  92.1445 267.9698 15.08847072 84614,6917.859,95.437,540.633,538.815,0.0
52371.0,STARLINK-3798,PAYLOAD,2023-10-22 19:56:23,15.08834648,0.0001303,53.2164,129.5897,94.3425,265.7716,9.6378e-05,1.246e-05,0.0,0 STARLINK-3798,1 52371U 22045AS  23295.83083114  .00001246  00000-0  96378-4 0  9990,2 52371  53.2164 129.5897 0001303  94.3425 265.7716 15.08834648 84740,6917.897,95.438,540.663,538.86,0.0
52371.0,STARLINK-3798,PAYLOAD,2023-10-23 19:47:10,15.08847247,0.0001328,53.2162,125.1305,94.5972,265.5172,0.00032028,4.814e-05,0.0,0 STARLINK-3798,1 52371U 22045AS  23296.82442834  .00004814  00000-0  32028-3 0  9993,2 52371  53.2162 125.1305 0001328  94.5972 265.5172 15.08847247 84899,6917.858,95.437,540.642,538.805,0.0
52371.0,STARLINK-3798,PAYLOAD,2023-10-23 21:22:33,15.0884831,0.0001315,53.2163,124.8331,94.7513,265.3629,0.00034963,5.282e-05,0.0,0 STARLINK-3798,1 52371U 22045AS  23296.89066801  .00005282  00000-0  34963-3 0  9996,2 52371  53.2163 124.8331 0001315  94.7513 265.3629 15.08848310 84903,6917.855,95.437,540.63,538.81,0.0
52371.0,STARLINK-3798,PAYLOAD,2023-10-24 13:16:25,15.08839417,0.0001277,53.216,121.8595,91.7595,268.3543,0.00010841,1.438e-05,0.0,0 STARLINK-3798,1 52371U 22045AS  23297.55307051  .00001438  00000-0  10841-3 0  9993,2 52371  53.2160 121.8595 0001277  91.7595 268.3543 15.08839417 85001,6917.882,95.438,540.631,538.864,0.0
52371.0,STARLINK-3798,PAYLOAD,2023-10-25 21:04:07,15.08847009,0.0001265,53.2157,115.912,91.5662,268.5475,0.00022941,3.366e-05,0.0,0 STARLINK-3798,1 52371U 22045AS  23298.87786701  .00003366  00000-0  22941-3 0  9998,2 52371  53.2157 115.9120 0001265  91.5662 268.5475 15.08847009 85209,6917.859,95.437,540.599,538.849,0.0
52371.0,STARLINK-3798,PAYLOAD,2023-10-26 11:22:36,15.08834658,0.0001328,53.2157,113.2356,89.6478,270.4666,4.4079e-05,4.14e-06,0.0,0 STARLINK-3798,1 52371U 22045AS  23299.47403305  .00000414  00000-0  44079-4 0  9999,2 52371  53.2157 113.2356 0001328  89.6478 270.4666 15.08834658 85293,6917.897,95.438,540.68,538.843,0.0
52371.0,STARLINK-3798,PAYLOAD,2023-10-26 12:57:59,15.08837394,0.0001433,53.2163,112.9382,80.4098,279.7056,-1.9599e-05,-6e-06,0.0,0 STARLINK-3798,1 52371U 22045AS  23299.54027294 -.00000600  00000-0 -19599-4 0  9994,2 52371  53.2163 112.9382 0001433  80.4098 279.7056 15.08837394 85306,6917.888,95.438,540.745,538.762,0.0
52371.0,STARLINK-3798,PAYLOAD,2023-10-26 19:19:32,15.08839277,0.0001342,53.2163,111.7488,88.4865,271.628,7.4975e-05,9.05e-06,0.0,0 STARLINK-3798,1 52371U 22045AS  23299.80523254  .00000905  00000-0  74975-4 0  9995,2 52371  53.2163 111.7488 0001342  88.4865 271.6280 15.08839277 85345,6917.883,95.438,540.676,538.819,0.0
52371.0,STARLINK-3798,PAYLOAD,2023-10-27 04:51:50,15.08845086,0.0001344,53.2164,109.9649,88.292,271.8226,0.00016416,2.326e-05,0.0,0 STARLINK-3798,1 52371U 22045AS  23300.20267029  .00002326  00000-0  16416-3 0  9991,2 52371  53.2164 109.9649 0001344  88.2920 271.8226 15.08845086 85400,6917.865,95.437,540.66,538.8,0.0
52371.0,STARLINK-3798,PAYLOAD,2023-10-27 20:45:41,15.08857784,0.0001356,53.2163,106.991,84.6939,275.4207,0.00032162,4.837e-05,0.0,0 STARLINK-3798,1 52371U 22045AS  23300.86506226  .00004837  00000-0  32162-3 0  9993,2 52371  53.2163 106.9910 0001356  84.6939 275.4207 15.08857784 85508,6917.826,95.436,540.629,538.753,0.0
52371.0,STARLINK-3798,PAYLOAD,2023-10-28 11:04:08,15.08884066,0.0001385,53.2158,104.3147,84.3876,275.7274,0.0008253,0.00012887,0.0,0 STARLINK-3798,1 52371U 22045AS  23301.46120692  .00012887  00000-0  82530-3 0  9997,2 52371  53.2158 104.3147 0001385  84.3876 275.7274 15.08884066 85594,6917.746,95.435,540.569,538.653,0.0
52371.0,STARLINK-3798,PAYLOAD,2023-10-28 14:14:55,15.08848875,0.0001434,53.2157,103.7194,39.9283,320.1814,-0.00016008,-2.835e-05,0.0,0 STARLINK-3798,1 52371U 22045AS  23301.59369589 -.00002835  00000-0 -16008-3 0  9992,2 52371  53.2157 103.7194 0001434  39.9283 320.1814 15.08848875 85617,6917.853,95.437,540.71,538.726,0.0
52371.0,STARLINK-3798,PAYLOAD,2023-10-28 20:36:27,15.08851329,0.0001403,53.216,102.5306,80.2034,279.9117,-0.00029962,-5.055e-05,0.0,0 STARLINK-3798,1 52371U 22045AS  23301.85865075 -.00005055  00000-0 -29962-3 0  9992,2 52371  53.2160 102.5306 0001403  80.2034 279.9117 15.08851329 85651,6917.846,95.437,540.681,538.74,0.0
52371.0,STARLINK-3798,PAYLOAD,2023-10-29 14:05:42,15.08837873,0.0001615,53.2173,99.2589,97.6666,262.4509,0.00048596,7.454e-05,0.0,0 STARLINK-3798,1 52371U 22045AS  23302.58729704  .00007454  00000-0  48596-3 0  9998,2 52371  53.2173  99.2589 0001615  97.6666 262.4509 15.08837873 85760,6917.887,95.438,540.869,538.635,0.0
52371.0,STARLINK-3798,PAYLOAD,2023-10-29 20:27:15,15.08841325,0.0001435,53.217,98.0683,87.3179,272.7978,0.00030107,4.507e-05,0.0,0 STARLINK-3798,1 52371U 22045AS  23302.85225700  .00004507  00000-0  30107-3 0  9990,2 52371  53.2170  98.0683 0001435  87.3179 272.7978 15.08841325 85800,6917.876,95.437,540.734,538.749,0.0
52371.0,STARLINK-3798,PAYLOAD,2023-10-30 10:45:44,15.08828981,0.0001587,53.2177,95.3875,111.0366,249.0796,0.00029041,4.336e-05,0.0,0 STARLINK-3798,1 52371U 22045AS  23303.44842730  .00004336  00000-0  29041-3 0  9999,2 52371  53.2177  95.3875 0001587 111.0366 249.0796 15.08828981 85898,6917.914,95.438,540.877,538.681,0.0
52371.0,STARLINK-3798,PAYLOAD,2023-10-30 17:07:16,15.08825254,0.0001835,53.2184,94.1994,85.1468,274.9734,0.00029467,4.403e-05,0.0,0 STARLINK-3798,1 52371U 22045AS  23303.71339006  .00004403  00000-0  29467-3 0  9993,2 52371  53.2184  94.1994 0001835  85.1468 274.9734 15.08825254 85939,6917.925,95.438,541.06,538.521,0.0
52371.0,STARLINK-3798,PAYLOAD,2023-10-31 13:47:17,15.08838787,0.0001418,53.2181,90.3365,80.005,280.1102,0.00028823,4.302e-05,0.0,0 STARLINK-3798,1 52371U 22045AS  23304.57451326  .00004302  00000-0  28823-3 0  9991,2 52371  53.2181  90.3365 0001418  80.0050 280.1102 15.08838787 86062,6917.884,95.438,540.73,538.768,0.0
52371.0,STARLINK-3798,PAYLOAD,2023-10-31 16:58:04,15.08845261,0.0001346,53.2166,89.7435,84.3287,275.7859,0.00049073,7.532e-05,0.0,0 STARLINK-3798,1 52371U 22045AS  23304.70699202  .00007532  00000-0  49073-3 0  9991,2 52371  53.2166  89.7435 0001346  84.3287 275.7859 15.08845261 86080,6917.864,95.437,540.66,538.798,0.0
52371.0,STARLINK-3798,PAYLOAD,2023-11-01 02:30:23,15.08840927,0.0001271,53.2165,87.9602,80.4849,279.6287,0.00045306,6.93e-05,0.0,0 STARLINK-3798,1 52371U 22045AS  23305.10443468  .00006930  00000-0  45306-3 0  9993,2 52371  53.2165  87.9602 0001271  80.4849 279.6287 15.08840927 86142,6917.878,95.437,540.622,538.863,0.0
52371.0,STARLINK-3798,PAYLOAD,2023-11-01 12:02:42,15.08836824,0.000135,53.2165,86.177,88.7579,271.3568,2.3829e-05,9.1e-07,0.0,0 STARLINK-3798,1 52371U 22045AS  23305.50187538  .00000091  00000-0  23829-4 0  9999,2 52371  53.2165  86.1770 0001350  88.7579 271.3568 15.08836824 86207,6917.89,95.438,540.689,538.821,0.0
52371.0,STARLINK-3798,PAYLOAD,2023-11-01 18:24:14,15.08845043,0.0001299,53.2174,84.9854,83.5727,276.5413,0.00027859,4.149e-05,0.0,0 STARLINK-3798,1 52371U 22045AS  23305.76683303  .00004149  00000-0  27859-3 0  9992,2 52371  53.2174  84.9854 0001299  83.5727 276.5413 15.08845043 86249,6917.865,95.437,540.629,538.831,0.0
52371.0,STARLINK-3798,PAYLOAD,2023-11-02 02:21:10,15.08839463,0.0001379,53.2168,83.4992,88.5592,271.5558,9.6124e-05,1.242e-05,0.0,0 STARLINK-3798,1 52371U 22045AS  23306.09803546  .00001242  00000-0  96124-4 0  9995,2 52371  53.2168  83.4992 0001379  88.5592 271.5558 15.08839463 86292,6917.882,95.438,540.701,538.793,0.0
52371.0,STARLINK-3798,PAYLOAD,2023-11-02 13:28:52,15.08836948,0.0001365,53.2165,81.4196,93.7123,266.4025,6.6788e-05,7.75e-06,0.0,0 STARLINK-3798,1 52371U 22045AS  23306.56171675  .00000775  00000-0  66788-4 0  9991,2 52371  53.2165  81.4196 0001365  93.7123 266.4025 15.08836948 86361,6917.89,95.438,540.699,538.81,0.0
52371.0,STARLINK-3798,PAYLOAD,2023-11-02 16:39:38,15.08841458,0.0001389,53.2178,80.8245,87.3122,272.803,9.3261e-05,1.197e-05,0.0,0 STARLINK-3798,1 52371U 22045AS  23306.69419515  .00001197  00000-0  93261-4 0  9998,2 52371  53.2178  80.8245 0001389  87.3122 272.8030 15.08841458 86388,6917.876,95.437,540.702,538.78,0.0
52371.0,STARLINK-3798,PAYLOAD,2023-11-03 14:55:02,15.08841128,0.0001348,53.2169,76.6605,85.1026,275.012,0.00016001,2.26e-05,0.0,0 STARLINK-3798,1 52371U 22045AS  23307.62155821  .00002260  00000-0  16001-3 0  9997,2 52371  53.2169  76.6605 0001348  85.1026 275.0120 15.08841128 86520,6917.877,95.437,540.674,538.809,0.0
52371.0,STARLINK-3798,PAYLOAD,2023-11-03 18:05:48,15.08848948,0.0001399,53.2179,76.0653,85.3567,274.7585,0.00027348,4.068e-05,0.0,0 STARLINK-3798,1 52371U 22045AS  23307.75403504  .00004068  00000-0  27348-3 0  9999,2 52371  53.2179  76.0653 0001399  85.3567 274.7585 15.08848948 86546,6917.853,95.437,540.686,538.75,0.0
